{"fetched_at":"2026-03-29T16:36:15Z","count":15609,"tles":[{"name":"STARLINK-31324","line1":"1 58976U 24031M   26087.77068787  .00002948  00000+0  11155-3 0  9996","line2":"2 58976  53.1606 208.1266 0001108 101.1841 258.9284 15.30218152119433","category":"Starlink"}]}