{
  "norad_id": 58976,
  "name": "STARLINK-31324",
  "history": [
    {
      "epoch": "2026-03-28T18:29:47.431968Z",
      "apogee_km": 475.92049089107513,
      "perigee_km": 474.4012518189538,
      "latitude_deg": -3.024515231605372e-05,
      "longitude_deg": 104.49258376315782,
      "height_km": 476.2066050996925,
      "semi_major_axis_km": 6853.297871355014,
      "eccentricity": 0.00011084,
      "inclination_deg": 53.1606,
      "raan_deg": 208.1266,
      "arg_perigee_deg": 101.1841,
      "mean_anomaly_deg": 258.9284,
      "mean_motion_rev_day": 15.30218152
    }
  ]
}